XRISM                   
1 57800U 23137A   23312.73711611  .00007208  00000+0  58097-3 0  9992
2 57800  31.0052 339.1570 0010420 176.9404 183.1295 14.98541218  9415
